ZHUHAI-1 02 (CAS-4B)    
1 42759U 17034B   23119.61048204  .00011921  00000+0  60979-3 0  9990
2 42759  43.0186  25.5525 0009121 152.4745 277.6471 15.16579185324265
ZHUHAI-1 01 (CAS-4A)    
1 42761U 17034D   23119.47996528  .00010620  00000+0  54369-3 0  9999
2 42761  43.0174  24.8170 0009909 151.3792 193.5861 15.16634709324248
MAX VALIER SAT          
1 42778U 17036P   23118.05988973  .00024954  00000+0  69919-3 0  9999
2 42778  97.1625 154.1517 0006152 279.0136  81.0412 15.36580543325024
RADFXSAT (FOX-1B)       
1 43017U 17073E   23118.95483631  .00006132  00000+0  43673-3 0  9994
2 43017  97.6367   5.2467 0234165 231.5237 126.4767 14.85455094293870
FOX-1D (AO-92)          
1 43137U 18004AC  23119.15175500  .00033547  00000+0  76687-3 0  9999
2 43137  97.3301 197.9302 0004412 315.5966  44.4927 15.42756583294731
DIWATA-2B               
1 43678U 18084H   23119.14119155  .00002209  00000+0  21678-3 0  9991
2 43678  98.0140 262.1490 0008729 330.6678  29.4038 14.93256380244945
ES'HAIL 2               
1 43700U 18090A   23118.84732661  .00000145  00000+0  00000+0 0  9992
2 43700   0.0118 178.0080 0001200 238.9953 130.3759  1.00273474 16432
FOX-1CLIFF (AO-95)      
1 43770U 18099N   23118.44776569  .00005427  00000+0  44832-3 0  9992
2 43770  97.5749 181.3282 0010633 297.3188  62.6952 14.99321970240157
ITASAT 1                
1 43786U 18099AE  23118.23992809  .00004348  00000+0  36240-3 0  9998
2 43786  97.5775 182.1633 0012864 288.4112  71.5713 14.99065433240162
JY1SAT (JO-97)          
1 43803U 18099AX  23119.16956494  .00005476  00000+0  44132-3 0  9993
2 43803  97.5715 183.0187 0011835 271.3115  88.6753 15.00258188240348
UWE-4                   
1 43880U 18111E   23119.25568379  .00006156  00000+0  47762-3 0  9992
2 43880  97.6410  25.2145 0015727 348.4067  11.6793 15.01628697235029
NEXUS (FO-99)           
1 43937U 19003F   23119.11294633  .00049992  00000+0  95440-3 0  9991
2 43937  97.0931 147.0885 0016404  99.4188 260.8918 15.47829951238440
JAISAT-1                
1 44419U 19038F   23119.41055232  .00022168  00000+0  80942-3 0  9995
2 44419  97.6723  99.5991 0018258 110.9196 249.3999 15.27979794211088
DUCHIFAT-3              
1 44854U 19089C   23119.16855845  .00011052  00000+0  75720-3 0  9992
2 44854  36.9625  24.0758 0011494 278.7365 234.9957 15.05485419185444
CAS-6 (TIANQIN 1)       
1 44881U 19093C   23119.22732730  .00001698  00000+0  21811-3 0  9998
2 44881  97.8616 198.5124 0013614 235.1835 124.8096 14.82422805181541
RS-44 & BREEZE-KM R/B   
1 44909U 19096E   23119.20222573  .00000000  00000+0 -38284-4 0  9999
2 44909  82.5264  20.4952 0216494 301.7113  56.3044 12.79720215155941
BY70-2                  
1 45857U 20042B   23118.90383022  .00026937  00000+0  28826-2 0  9993
2 45857  97.9265 198.7034 0010729 161.7557 198.3907 14.88634715152206
SALSAT                  
1 46495U 20068K   23118.40523350  .00005726  00000+0  38303-3 0  9990
2 46495  97.7657  65.9107 0014008 291.7893  68.1843 15.07273418141577
RADFXSAT-2 (AO-109)     
1 47311U 21002C   23118.82905243  .00029923  00000+0  83086-3 0  9991
2 47311  60.6806 247.9459 0022268 149.1031 211.1378 15.36527795126702
UVSQ-SAT                
1 47438U 21006AB  23118.11901230  .00017122  00000+0  73189-3 0  9990
2 47438  97.3890 175.9895 0008762 252.1662 107.8620 15.22880801125024
DIY-1 (ARDUIQUBE)       
1 47963U 21022AH  23119.15636511  .00130007  00000+0  26974-2 0  9990
2 47963  97.5014  25.5991 0014049 109.8288 250.4476 15.45120742114984
XW-3 (CAS-9)            
1 50466U 21131B   23119.21492601  .00000616  00000+0  21473-3 0  9992
2 50466  98.5516 200.9143 0003037 289.3289  70.7570 14.38852772 70314
TEVEL-3                 
1 50988U 22002E   23119.14368602  .00024681  00000+0  10408-2 0  9997
2 50988  97.4376 186.5036 0009270  61.5982 328.7881 15.23262421 71290
TEVEL-8                 
1 50989U 22002F   23119.44088584  .00023236  00000+0  98159-3 0  9994
2 50989  97.4382 186.8532 0010132  46.3565  81.2285 15.23205716 71337
TEVEL-5                 
1 50998U 22002Q   23119.17812274  .00025037  00000+0  10326-2 0  9995
2 50998  97.4351 186.8633 0008716  55.0369 329.1031 15.24012972 71322
TEVEL-6                 
1 50999U 22002R   23119.18355782  .00025095  00000+0  10348-2 0  9991
2 50999  97.4345 186.8634 0008924  54.8369   7.1390 15.24016484 71328
TEVEL-1                 
1 51013U 22002AF  23119.15237412  .00023932  00000+0  10108-2 0  9997
2 51013  97.4374 186.4623 0008802  56.2211 335.7772 15.23216203 71299
TEVEL-7                 
1 51062U 22002CG  23119.16146646  .00024532  00000+0  10359-2 0  9995
2 51062  97.4389 186.5511 0009635  53.5499 334.6594 15.23212619 71296
TEVEL-4                 
1 51063U 22002CH  23119.16584890  .00024384  00000+0  10312-2 0  9997
2 51063  97.4391 186.5409 0009170  50.9166 336.4093 15.23168738 71298
TEVEL-2                 
1 51069U 22002CP  23119.14552688  .00024035  00000+0  10138-2 0  9990
2 51069  97.4364 186.4793 0009437  54.3440 335.9596 15.23258446 71296
GREENCUBE               
1 53106U 22080B   23115.60054139 -.00000003  00000+0  00000+0 0  9999
2 53106  70.1708 337.9996 0008248 197.2207 162.8174  6.42557241 18370
RS29S (SXC3-2110 CYCLO*)
1 53373U 22096D   23119.47812758  .00032970  00000+0  93867-3 0  9994
2 53373  97.4184  25.3094 0002645  55.5258  57.8650 15.36041570 40205
RS32S (SXC3-212 MONITO*)
1 53374U 22096E   23119.54754164  .00028985  00000+0  84260-3 0  9997
2 53374  97.4145  25.3286 0002748  50.1435  29.3035 15.35414511 40218
RS34S (SXC3-218 KUZBAS*)
1 53375U 22096F   23119.13252435  .00027675  00000+0  84428-3 0  9998
2 53375  97.4176  24.7147 0001783  64.0830  72.6208 15.33899570 40137
RS23S (SXC3-21 UTMN)    
1 53376U 22096G   23119.17517597  .00027870  00000+0  83776-3 0  9998
2 53376  97.4167  24.8175 0002184  58.4347 101.4689 15.34366231 40145
RS28S (SXC3-214 MIET-A*)
1 53377U 22096H   23119.51774701  .00025049  00000+0  76894-3 0  9998
2 53377  97.4184  25.1092 0002210  39.7419  63.2058 15.33722139 40191
RS26S (KAI-1)           
1 53378U 22096J   23119.38586221  .00020521  00000+0  65472-3 0  9992
2 53378  97.4184  24.8379 0001495  55.8304  55.9102 15.32532314 40160
RS19S (SXC3-219 ISOI)   
1 53381U 22096M   23119.49054523  .00023820  00000+0  71460-3 0  9992
2 53381  97.4154  25.2846 0001320 191.8353 274.4769 15.34462503 40203
RS21S (CUBESX-HSE-2)    
1 53383U 22096P   23119.54361172  .00025437  00000+0  75618-3 0  9996
2 53383  97.4189  25.3835 0001682 200.0931 285.4668 15.34738440 40215
RS30S (SXC3-217 SIREN)  
1 53384U 22096Q   23119.21145222  .00022725  00000+0  70059-3 0  9998
2 53384  97.4183  24.9303 0002158 201.2858 310.4469 15.33605367 40156
RS20S (GEOSCAN-EDELVEIS)
1 53385U 22096R   23119.48970442  .00033938  00000+0  92241-3 0  9993
2 53385  97.4171  25.7336 0002795 186.7650 275.9127 15.37482510 40268
RS33S (SXC3-215 VIZARD) 
1 53386U 22096S   23119.37701051  .00044602  00000+0  11063-2 0  9992
2 53386  97.4166  26.0348 0003235 191.7737 275.3223 15.40234776 40266
CAS-5A (FO-118)         
1 54684U 22167C   23119.17058970  .00016067  00000+0  91294-3 0  9995
2 54684  97.5536 257.1460 0014335 142.7151 321.0110 15.12897334 21268
